{"version": 0.6, "generator": "Overpass API 0.7.62.1 084b4234", "osm3s": {"timestamp_osm_base": "2024-06-29T13:25:04Z", "copyright": "The data included in this document is from www.openstreetmap.org. The data is made available under ODbL."}, "elements": [{"type": "node", "id": 31914191, "lat": 52.4508038, "lon": 13.1090838}, {"type": "node", "id": 98042872, "lat": 52.7560787, "lon": 13.5153509}, {"type": "node", "id": 98042885, "lat": 52.7540091, "lon": 13.5198042}, {"type": "node", "id": 98042887, "lat": 52.7567147, "lon": 13.5179865}, {"type": "node", "id": 193581507, "lat": 52.6869206, "lon": 13.4750371}, {"type": "node", "id": 193581508, "lat": 52.6869053, "lon": 13.4747604}, {"type": "node", "id": 193581510, "lat": 52.6881005, "lon": 13.4736737}, {"type": "node", "id": 193581512, "lat": 52.6873637, "lon": 13.4759416}, {"type": "node", "id": 193581513, "lat": 52.6864792, "lon": 13.4757957}, {"type": "node", "id": 193581514, "lat": 52.6865417, "lon": 13.4750833}, {"type": "node", "id": 253156906, "lat": 52.5490096, "lon": 13.2582537}, {"type": "node", "id": 253156907, "lat": 52.5489404, "lon": 13.2609119}, {"type": "node", "id": 253156908, "lat": 52.5488998, "lon": 13.2609999}, {"type": "node", "id": 253156909, "lat": 52.5488234, "lon": 13.2610186}, {"type": "node", "id": 253156910, "lat": 52.548765, "lon": 13.2609802}, {"type": "node", "id": 262458592, "lat": 52.7539012, "lon": 13.5167332}, {"type": "node", "id": 262458594, "lat": 52.7541267, "lon": 13.5176317}, {"type": "node", "id": 432469219, "lat": 52.4642609, "lon": 13.1664279}, {"type": "node", "id": 432469229, "lat": 52.4653016, "lon": 13.1634541}, {"type": "node", "id": 432469231, "lat": 52.465316, "lon": 13.166575}, {"type": "node", "id": 432469232, "lat": 52.4651058, "lon": 13.1664071}, {"type": "node", "id": 432469233, "lat": 52.46425, "lon": 13.1652055}, {"type": "node", "id": 432469234, "lat": 52.4644391, "lon": 13.1646304}, {"type": "node", "id": 432469235, "lat": 52.4651627, "lon": 13.1632207}, {"type": "node", "id": 560673092, "lat": 52.4499731, "lon": 13.1110069}, {"type": "node", "id": 847071541, "lat": 52.6880395, "lon": 13.4752959}, {"type": "node", "id": 847071547, "lat": 52.6883014, "lon": 13.4733167}, {"type": "node", "id": 847071553, "lat": 52.6874236, "lon": 13.4745252}, {"type": "node", "id": 847071554, "lat": 52.6879754, "lon": 13.4760604}, {"type": "node", "id": 847071559, "lat": 52.6884165, "lon": 13.4734308}, {"type": "node", "id": 847071565, "lat": 52.6875811, "lon": 13.4742344}, {"type": "node", "id": 847071567, "lat": 52.6883558, "lon": 13.4740543}, {"type": "node", "id": 847071572, "lat": 52.6880445, "lon": 13.4736369}, {"type": "node", "id": 847071577, "lat": 52.6882392, "lon": 13.4746731}, {"type": "node", "id": 847071582, "lat": 52.6882201, "lon": 13.4733492}, {"type": "node", "id": 847071586, "lat": 52.687073, "lon": 13.4747446}, {"type": "node", "id": 1039213650, "lat": 52.8385356, "lon": 13.1523507}, {"type": "node", "id": 1039399515, "lat": 52.8385678, "lon": 13.1524921}, {"type": "node", "id": 1255195667, "lat": 52.4539212, "lon": 13.1136522}, {"type": "node", "id": 1425282537, "lat": 52.5825389, "lon": 13.2118744, "tags": {"caravans": "yes", "name": "B\u00fcrgerablage", "tents": "yes", "tourism": "camp_site", "website": "https://www.berliner-camping-club.com/Camping-Buergerablage/", "wikidata": "Q123139750"}}, {"type": "node", "id": 1544009501, "lat": 52.7542681, "lon": 13.5164826}, {"type": "node", "id": 1544017359, "lat": 52.7538434, "lon": 13.5191071}, {"type": "node", "id": 2298362908, "lat": 52.8195136, "lon": 13.5826888, "tags": {"addr:city": "Marienwerder", "addr:country": "DE", "addr:housenumber": "25", "addr:postcode": "16348", "addr:street": "Biesenthaler Chaussee", "addr:suburb": "Ruhlsdorf", "alt_name": "wake & camp ruhlsdorf", "capacity": "300", "caravans": "yes", "dog": "yes", "dryer": "yes", "fee": "yes", "name": "Familiencamping Ruhlesee", "operator": "Markus Gerlitzki", "phone": "+49 3337 451635", "power_supply": "yes", "sanitary_dump_station": "yes", "tents": "yes", "tourism": "camp_site", "washing_machine": "yes", "website": "http://www.wake-and-camp.de", "wikidata": "Q123235829"}}, {"type": "node", "id": 2404074903, "lat": 52.7537512, "lon": 13.5186556}, {"type": "node", "id": 2404074904, "lat": 52.7543469, "lon": 13.5174753}, {"type": "node", "id": 2404074906, "lat": 52.7545144, "lon": 13.5181888}, {"type": "node", "id": 2583119014, "lat": 52.8110708, "lon": 13.5014207, "tags": {"amenity": "reception_desk", "camp_site": "serviced", "caravans": "yes", "dog": "yes", "name": "Sch\u00f6nmacher Camping", "note": "many caravans", "power_supply": "yes", "tents": "yes", "tourism": "camp_site", "website": "www.schoenmacher-camping.de"}}, {"type": "node", "id": 2822520016, "lat": 52.7359848, "lon": 13.3776916}, {"type": "node", "id": 2822520025, "lat": 52.7346787, "lon": 13.3793806}, {"type": "node", "id": 2854726114, "lat": 52.4661196, "lon": 13.164463}, {"type": "node", "id": 2885083426, "lat": 52.8377552, "lon": 13.1522226}, {"type": "node", "id": 2885083428, "lat": 52.837928, "lon": 13.1531382}, {"type": "node", "id": 2885083432, "lat": 52.8381585, "lon": 13.1535675}, {"type": "node", "id": 2885083434, "lat": 52.8382629, "lon": 13.1523059}, {"type": "node", "id": 2885083436, "lat": 52.8383999, "lon": 13.1541698}, {"type": "node", "id": 2885083437, "lat": 52.8386232, "lon": 13.1543547}, {"type": "node", "id": 2885083438, "lat": 52.8387421, "lon": 13.1527983}, {"type": "node", "id": 2885083439, "lat": 52.8387457, "lon": 13.1545038}, {"type": "node", "id": 2885083440, "lat": 52.838987, "lon": 13.154796}, {"type": "node", "id": 2885083441, "lat": 52.8390338, "lon": 13.1535019}, {"type": "node", "id": 2885083442, "lat": 52.8391923, "lon": 13.1539313}, {"type": "node", "id": 2894005996, "lat": 52.8365768, "lon": 13.1517738}, {"type": "node", "id": 2894005997, "lat": 52.8366085, "lon": 13.1515205}, {"type": "node", "id": 2894005998, "lat": 52.837668, "lon": 13.1520794}, {"type": "node", "id": 2894005999, "lat": 52.8376996, "lon": 13.1518261}, {"type": "node", "id": 3232182929, "lat": 52.548719, "lon": 13.2608045}, {"type": "node", "id": 3232182930, "lat": 52.5487421, "lon": 13.2609398}, {"type": "node", "id": 3232182931, "lat": 52.5490801, "lon": 13.2570197}, {"type": "node", "id": 3637396626, "lat": 52.4539845, "lon": 13.1118922}, {"type": "node", "id": 3637396628, "lat": 52.4538213, "lon": 13.1150565}, {"type": "node", "id": 3637396629, "lat": 52.4526786, "lon": 13.1138594}, {"type": "node", "id": 3637396630, "lat": 52.4512134, "lon": 13.1123152}, {"type": "node", "id": 3637396631, "lat": 52.4530556, "lon": 13.1109788}, {"type": "node", "id": 3637396632, "lat": 52.4540104, "lon": 13.1114933}, {"type": "node", "id": 4727723194, "lat": 52.8043081, "lon": 13.5796451, "tags": {"addr:postcode": "16348", "addr:street": "Zum Mittelprendener", "name": "FKK Campingplatz Mittelprendener See", "name:de": "FKK Campingplatz Mittelprendener See", "name:en": "FKK Campingplatz Mittelprendener See", "tourism": "camp_site", "website": "https://www.familiencamping-barnim.de/anfahrt"}}, {"type": "node", "id": 5293464229, "lat": 52.4538963, "lon": 13.1142938}, {"type": "node", "id": 5379638262, "lat": 52.450098, "lon": 13.1107959}, {"type": "node", "id": 5560345475, "lat": 52.5484092, "lon": 13.2564859}, {"type": "node", "id": 5560345476, "lat": 52.5491605, "lon": 13.2563306}, {"type": "node", "id": 5628113609, "lat": 52.5484433, "lon": 13.2568352}, {"type": "node", "id": 5628113610, "lat": 52.5485138, "lon": 13.2578436}, {"type": "node", "id": 5628113611, "lat": 52.5485455, "lon": 13.2585719}, {"type": "node", "id": 5628147656, "lat": 52.5487063, "lon": 13.2604295}, {"type": "node", "id": 5628147657, "lat": 52.5486827, "lon": 13.260025}, {"type": "node", "id": 5628147658, "lat": 52.5486467, "lon": 13.2598636}, {"type": "node", "id": 5628147659, "lat": 52.5489461, "lon": 13.2607686}, {"type": "node", "id": 5628147660, "lat": 52.5489573, "lon": 13.2603968}, {"type": "node", "id": 5628147661, "lat": 52.5489685, "lon": 13.259929}, {"type": "node", "id": 5628147662, "lat": 52.5489809, "lon": 13.2593794}, {"type": "node", "id": 5628147685, "lat": 52.5490306, "lon": 13.2578717}, {"type": "node", "id": 5628147686, "lat": 52.5490386, "lon": 13.2575224}, {"type": "node", "id": 5655339831, "lat": 52.737167, "lon": 13.3794165}, {"type": "node", "id": 5655339834, "lat": 52.7350095, "lon": 13.3796163}, {"type": "node", "id": 5655339835, "lat": 52.7356388, "lon": 13.3803593}, {"type": "node", "id": 5655339836, "lat": 52.7361268, "lon": 13.3799194}, {"type": "node", "id": 5655339837, "lat": 52.7365077, "lon": 13.3798617}, {"type": "node", "id": 5655339838, "lat": 52.7373343, "lon": 13.38072}, {"type": "node", "id": 5655339839, "lat": 52.7376907, "lon": 13.3800119}, {"type": "node", "id": 5902083293, "lat": 52.736654, "lon": 13.3786625}, {"type": "node", "id": 6294209336, "lat": 52.5484897, "lon": 13.2564192}, {"type": "node", "id": 6294209337, "lat": 52.5486927, "lon": 13.2563006}, {"type": "node", "id": 6294209339, "lat": 52.5488686, "lon": 13.2562655}, {"type": "node", "id": 6294209341, "lat": 52.5490513, "lon": 13.2562789}, {"type": "node", "id": 6294209347, "lat": 52.5486977, "lon": 13.2563809}, {"type": "node", "id": 7488920661, "lat": 52.4581559, "lon": 13.1126055}, {"type": "node", "id": 7488920662, "lat": 52.4562153, "lon": 13.1123414}, {"type": "node", "id": 7488920663, "lat": 52.4557041, "lon": 13.1156597}, {"type": "node", "id": 7488920664, "lat": 52.4561821, "lon": 13.1158417}, {"type": "node", "id": 7740071393, "lat": 52.7441574, "lon": 13.5041249, "tags": {"tourism": "camp_site"}}, {"type": "node", "id": 9620366463, "lat": 52.7354468, "lon": 13.3788878}, {"type": "node", "id": 11054284291, "lat": 52.4576164, "lon": 13.115387}, {"type": "node", "id": 11054284292, "lat": 52.4576922, "lon": 13.1126748}, {"type": "node", "id": 11054284293, "lat": 52.4565037, "lon": 13.1124315}, {"type": "node", "id": 11950805469, "lat": 52.5477111, "lon": 13.5108675, "tags": {"addr:housenumber": "1", "addr:postcode": "13053", "addr:street": "Wollenberger Stra\u00dfe", "name": "Refugee campus", "opening_hours": "Mo-Fr 08:00-19:00", "tourism": "camp_site", "website": "https://milaa-berlin.org/unsere-arbeit/gefluechtetenarbeit/"}}, {"type": "way", "id": 11009287, "nodes": [98042872, 1544009501, 262458592, 262458594, 2404074904, 2404074906, 2404074903, 1544017359, 98042885, 98042887, 98042872], "tags": {"addr:city": "Wandlitz", "addr:housenumber": "8a", "addr:postcode": "16348", "addr:street": "Am Liepnitzsee", "caravans": "yes", "drinking_water": "yes", "internet_access": "no", "name": "Campingplatz am Liepnitzsee", "operator": "Mecklenburg Touristik GmbH", "power_supply": "yes", "sanitary_dump_station": "yes", "shower": "yes", "tents": "yes", "toilets": "yes", "tourism": "camp_site", "website": "http://www.mecklenburg-tourist.de/liepnitzsee/", "wheelchair": "yes", "wikidata": "Q123196955", "wikimedia_commons": "File:19-09-28-Wandlitz-0865-0873.jpg"}}, {"type": "way", "id": 18754574, "nodes": [193581507, 193581508, 847071586, 847071553, 847071565, 193581510, 847071572, 847071582, 847071547, 847071559, 847071567, 847071577, 847071541, 847071554, 193581512, 193581513, 193581514, 193581507], "tags": {"addr:city": "Wandlitz", "addr:postcode": "16348", "addr:street": "Bernauer Damm", "addr:suburb": "Sch\u00f6nwalde", "email": "mail@campingfreunde-gorinsee.info", "fee": "yes", "name": "Camping am Gorinsee", "operator": "Campingfreunde Gorinsee e.V.", "phone": "+491626820558", "power_supply": "yes", "tourism": "camp_site", "website": "https://www.campingfreunde-gorinsee.info/", "wikidata": "Q123194365"}}, {"type": "way", "id": 37133411, "nodes": [432469229, 2854726114, 432469231, 432469232, 432469219, 432469233, 432469234, 432469235, 432469229], "tags": {"addr:city": "Berlin", "addr:country": "DE", "addr:housenumber": "207-213", "addr:inclusion": "potential", "addr:postcode": "14089", "addr:street": "Kladower Damm", "addr:suburb": "Kladow", "caravans": "yes", "drinking_water": "yes", "internet_access": "wlan", "name": "Campingplatz Gatow", "power_supply": "yes", "shower": "yes", "source": "Geoportal Berlin / Hauskoordinaten", "tents": "yes", "tourism": "camp_site", "website": "https://www.dccberlin.de/index.php/gatow", "wikidata": "Q123193283", "wikimedia_commons": "File:Berlin-Gatow - Campingplatz - geo.hlipp.de - 38375.jpg"}}, {"type": "way", "id": 69855640, "nodes": [5560345476, 3232182931, 5628147686, 5628147685, 253156906, 5628147662, 5628147661, 5628147660, 5628147659, 253156907, 253156908, 253156909, 253156910, 3232182930, 3232182929, 5628147656, 5628147657, 5628147658, 5628113611, 5628113610, 5628113609, 5560345475, 6294209336, 6294209347, 6294209337, 6294209339, 6294209341, 5560345476], "tags": {"addr:housenumber": "1", "addr:street": "Gartenfelder Stra\u00dfe", "caravans": "yes", "contact:email": "spandau@city-camping-berlin.de", "contact:facebook": "https://www.facebook.com/hotelundcitycamping.1/", "contact:phone": "+49 30 33503633", "contact:website": "https://www.city-camping-berlin.de/campingnord.html", "drinking_water": "yes", "internet_access": "wlan", "name": "City Camping", "power_supply": "yes", "sanitary_dump_station": "yes", "shower": "yes", "tents": "yes", "toilets": "yes", "toilets:wheelchair": "yes", "tourism": "camp_site", "wheelchair": "yes", "wikidata": "Q123139300"}}, {"type": "way", "id": 284803672, "nodes": [1039399515, 2885083438, 2885083441, 2885083442, 2885083440, 2885083439, 2885083437, 2885083436, 2885083432, 2885083428, 2885083426, 2885083434, 1039213650, 1039399515], "tags": {"access": "customers", "cabins": "yes", "caravans": "yes", "email": "campingplatz-n22@t-online.de", "name": "Gro\u00dfe Pl\u00f6tze", "operator": "Campingplatz \"Gro\u00dfe Pl\u00f6tze\" e. V.", "phone": "+49 33051 25117", "reservation": "recommended", "shower": "yes", "static_caravans": "yes", "tents": "yes", "toilets": "yes", "tourism": "camp_site", "website": "https://www.campingplatz-grosseploetze.de/"}}, {"type": "way", "id": 285764364, "nodes": [2894005999, 2894005997, 2894005996, 2894005998, 2894005999], "tags": {"addr:city": "L\u00f6wenberger Land", "addr:housenumber": "5", "addr:postcode": "16775", "addr:street": "Weg zum See", "addr:suburb": "Neuendorf", "caravans": "yes", "email": "grosseploetze-ev@gmx.de", "fee": "yes", "name": "Campingplatz Gro\u00dfe Pl\u00f6tze e.V.", "operator": "Campingverein \u201eGro\u00dfe Pl\u00f6tze\u201c e.V.", "phone": "+493305125117", "power_supply": "yes", "shower": "yes", "tents": "yes", "tourism": "camp_site", "website": "https://www.campingplatz-grosseploetze.de/", "wikidata": "Q123376262"}}, {"type": "way", "id": 358922632, "nodes": [3637396626, 1255195667, 5293464229, 3637396628, 3637396629, 3637396630, 560673092, 5379638262, 31914191, 3637396631, 3637396632, 3637396626], "tags": {"addr:city": "Berlin", "addr:country": "DE", "addr:housenumber": "111", "addr:postcode": "14089", "addr:street": "Krampnitzer Weg", "addr:suburb": "Kladow", "backcountry": "no", "caravans": "yes", "contact:email": "info@dccberlin.de", "contact:foursquare": "https://foursquare.com/v/50411c1be4b08d95c14d2400", "contact:website": "https://www.dccberlin.de/", "drinking_water": "yes", "fax": "+49 30 3651245", "fee": "yes", "name": "DCC-Campingplatz Kladow", "opening_hours": "Jan-Mar 08:00-13:00,15:00-21:00; Apr-Sep 06:00-13:00,15:00-22:00; Oct-Dec 07:00-13:00,15:00-21:00", "phone": "+49 30 3652797", "power_supply": "yes", "sanitary_dump_station": "yes", "shower": "yes", "static_caravans": "yes", "surface": "grass", "tents": "yes", "toilets": "yes", "tourism": "camp_site", "wheelchair": "limited", "wikidata": "Q123193795"}}, {"type": "way", "id": 592563554, "nodes": [5655339839, 5655339838, 5655339837, 5655339836, 5655339835, 5655339834, 2822520025, 9620366463, 2822520016, 5902083293, 5655339831, 5655339839], "tags": {"addr:city": "Z\u00fchlsdorf, M\u00fchlenbecker Land", "addr:housenumber": "1", "addr:postcode": "16515", "addr:street": "M\u00fchlenstra\u00dfe", "caravans": "yes", "contact:email": "camping-zuehlsd.muehle@web.de", "contact:fax": "+49 33397 612 37", "contact:phone": "+49 33397 612 37", "contact:website": "www.camping-zuehlsdorf.de", "name": "Campingplatz \"Z\u00fchlsdorfer M\u00fchle\"", "tents": "yes", "tourism": "camp_site", "wikidata": "Q123196741"}}, {"type": "way", "id": 800685406, "nodes": [7488920661, 11054284292, 11054284293, 7488920662, 7488920663, 7488920664, 11054284291, 7488920661], "tags": {"tourism": "camp_site"}}]}