{"version": 0.6, "generator": "Overpass API 0.7.62.1 084b4234", "osm3s": {"timestamp_osm_base": "2024-06-29T13:26:04Z", "copyright": "The data included in this document is from www.openstreetmap.org. The data is made available under ODbL."}, "elements": [{"type": "node", "id": 248927520, "lat": 53.3060891, "lon": 13.8449351}, {"type": "node", "id": 255251753, "lat": 53.5306119, "lon": 14.0928588}, {"type": "node", "id": 255251754, "lat": 53.5299075, "lon": 14.0935159}, {"type": "node", "id": 255251755, "lat": 53.5288638, "lon": 14.0940887}, {"type": "node", "id": 1094691584, "lat": 53.5309922, "lon": 14.0922192}, {"type": "node", "id": 1119870863, "lat": 53.4035162, "lon": 14.1168893}, {"type": "node", "id": 1119875176, "lat": 53.4036552, "lon": 14.1170745}, {"type": "node", "id": 1119875180, "lat": 53.4033502, "lon": 14.1167774}, {"type": "node", "id": 1119875184, "lat": 53.405297, "lon": 14.1184069}, {"type": "node", "id": 1119875192, "lat": 53.4033921, "lon": 14.1172662}, {"type": "node", "id": 1119875195, "lat": 53.4033798, "lon": 14.1197068}, {"type": "node", "id": 1119875198, "lat": 53.4033709, "lon": 14.116712}, {"type": "node", "id": 1119875203, "lat": 53.4039308, "lon": 14.1173518}, {"type": "node", "id": 1119875217, "lat": 53.403579, "lon": 14.1176357}, {"type": "node", "id": 1119875223, "lat": 53.4034447, "lon": 14.1171189}, {"type": "node", "id": 1119875227, "lat": 53.4040735, "lon": 14.1183867}, {"type": "node", "id": 1119897847, "lat": 53.4046177, "lon": 14.1178173}, {"type": "node", "id": 1119897982, "lat": 53.4046327, "lon": 14.1191715}, {"type": "node", "id": 1119898074, "lat": 53.4037701, "lon": 14.1193001}, {"type": "node", "id": 1119898094, "lat": 53.4049434, "lon": 14.118601}, {"type": "node", "id": 1119898183, "lat": 53.4049512, "lon": 14.1188225}, {"type": "node", "id": 1119898210, "lat": 53.4053266, "lon": 14.1182878}, {"type": "node", "id": 1807224088, "lat": 53.241506, "lon": 14.4270079}, {"type": "node", "id": 1807224089, "lat": 53.2417737, "lon": 14.4263496}, {"type": "node", "id": 1807224090, "lat": 53.2418615, "lon": 14.426286}, {"type": "node", "id": 1807224091, "lat": 53.2421079, "lon": 14.4261309}, {"type": "node", "id": 1807224092, "lat": 53.242157, "lon": 14.4276271}, {"type": "node", "id": 1807224094, "lat": 53.2422917, "lon": 14.4263208}, {"type": "node", "id": 1807224114, "lat": 53.242456, "lon": 14.42641}, {"type": "node", "id": 2266464338, "lat": 53.3062624, "lon": 13.8460033}, {"type": "node", "id": 2266464511, "lat": 53.3071214, "lon": 13.8462608}, {"type": "node", "id": 2266464512, "lat": 53.3060893, "lon": 13.8457566}, {"type": "node", "id": 2267756906, "lat": 53.2956222, "lon": 13.8729967}, {"type": "node", "id": 2267756923, "lat": 53.2956382, "lon": 13.8728787}, {"type": "node", "id": 2267757044, "lat": 53.2941248, "lon": 13.8699122}, {"type": "node", "id": 2267757045, "lat": 53.2943204, "lon": 13.8705398}, {"type": "node", "id": 2267757111, "lat": 53.2956028, "lon": 13.8721379}, {"type": "node", "id": 2398336654, "lat": 53.2423163, "lon": 14.4269876}, {"type": "node", "id": 2398336656, "lat": 53.2423499, "lon": 14.4268664}, {"type": "node", "id": 2410475715, "lat": 53.5291418, "lon": 14.0936298}, {"type": "node", "id": 2410475717, "lat": 53.5292521, "lon": 14.0950835}, {"type": "node", "id": 2410475719, "lat": 53.5296268, "lon": 14.0948018}, {"type": "node", "id": 2410475720, "lat": 53.5297671, "lon": 14.0946758}, {"type": "node", "id": 2410475721, "lat": 53.5299074, "lon": 14.0945899}, {"type": "node", "id": 2410475723, "lat": 53.5301688, "lon": 14.0944961}, {"type": "node", "id": 2410475724, "lat": 53.5304136, "lon": 14.0940685}, {"type": "node", "id": 2410475726, "lat": 53.5309689, "lon": 14.0934497}, {"type": "node", "id": 2410475729, "lat": 53.5314868, "lon": 14.0924579}, {"type": "node", "id": 2410475730, "lat": 53.5315062, "lon": 14.0929247}, {"type": "node", "id": 2669364003, "lat": 53.2418186, "lon": 14.4272947}, {"type": "node", "id": 2669364009, "lat": 53.2420531, "lon": 14.42741}, {"type": "node", "id": 3014318776, "lat": 53.2914783, "lon": 13.8719484}, {"type": "node", "id": 3014318777, "lat": 53.2915, "lon": 13.8727902}, {"type": "node", "id": 3014318782, "lat": 53.2918513, "lon": 13.8730844}, {"type": "node", "id": 3014318789, "lat": 53.2926103, "lon": 13.8735404}, {"type": "node", "id": 3014318792, "lat": 53.2946368, "lon": 13.8744185}, {"type": "node", "id": 3014318793, "lat": 53.2949672, "lon": 13.8743535}, {"type": "node", "id": 3014318794, "lat": 53.2952774, "lon": 13.8740692}, {"type": "node", "id": 3802472757, "lat": 53.4496155, "lon": 14.2203534}, {"type": "node", "id": 3802472759, "lat": 53.4501949, "lon": 14.2206553}, {"type": "node", "id": 3879980146, "lat": 53.4500269, "lon": 14.2214363}, {"type": "node", "id": 3879980147, "lat": 53.4495157, "lon": 14.2211788}, {"type": "node", "id": 3879980148, "lat": 53.4485944, "lon": 14.2215571}, {"type": "node", "id": 3879980149, "lat": 53.4485062, "lon": 14.2202293}, {"type": "node", "id": 3879980150, "lat": 53.4497551, "lon": 14.2197604}, {"type": "node", "id": 4309608484, "lat": 53.5062462, "lon": 13.9811262, "tags": {"addr:housenumber": "5", "addr:street": "An der Uecker", "description": "Zeltplatz f\u00fcr Wasserwanderer und Fahrradfahrer Ge\u00f6ffnet von Mai bis Oktober", "fee": "yes", "name": "WasserWanderRastplatz Kunstgarten Pasewalk", "opening_hours": "Mo-Su 08:00-12:00,18:00-20:00", "tourism": "camp_site", "website": "https://pasewalk.de/de/kultur-freizeit/wasserwanderrastplatz/"}}, {"type": "node", "id": 4320596257, "lat": 53.4034462, "lon": 14.1197856}, {"type": "node", "id": 4320596263, "lat": 53.4035705, "lon": 14.1176189}, {"type": "node", "id": 4836183942, "lat": 53.3072481, "lon": 13.8457333}, {"type": "node", "id": 4836183943, "lat": 53.3065687, "lon": 13.8448594}, {"type": "node", "id": 5064207168, "lat": 53.2926728, "lon": 13.8710293}, {"type": "node", "id": 5106697259, "lat": 53.5290165, "lon": 14.0940284}, {"type": "node", "id": 5106697266, "lat": 53.531203, "lon": 14.0923625}, {"type": "node", "id": 5106697268, "lat": 53.5296396, "lon": 14.0934824}, {"type": "node", "id": 5106697269, "lat": 53.529469, "lon": 14.09364}, {"type": "node", "id": 5106697270, "lat": 53.5306814, "lon": 14.0924241}, {"type": "node", "id": 5106697271, "lat": 53.5312439, "lon": 14.0929449}, {"type": "node", "id": 5106697272, "lat": 53.5304287, "lon": 14.0944076}, {"type": "node", "id": 5106697275, "lat": 53.5293966, "lon": 14.0936377}, {"type": "node", "id": 5857156865, "lat": 53.521289, "lon": 14.3012613, "tags": {"addr:city": "Blankensee", "addr:housenumber": "71", "addr:postcode": "17322", "addr:street": "Dorfstra\u00dfe", "capacity": "30", "internet_access": "wlan", "internet_access:ssid": "emma", "name": "Zaubermondhof Camp", "operator": "Kalanke", "tourism": "camp_site", "website": "http://zaubermondhof.de/"}}, {"type": "node", "id": 5878622055, "lat": 53.6612437, "lon": 14.2346186, "tags": {"addr:city": "Hintersee", "addr:housenumber": "12", "addr:postcode": "17375", "name": "Fennhof", "tourism": "camp_site", "website": "http://www.fennhof.de"}}, {"type": "node", "id": 7471541025, "lat": 53.3280951, "lon": 13.8528435, "tags": {"addr:city": "Prenzlau", "addr:country": "DE", "addr:postcode": "17291", "addr:street": "Triftstra\u00dfe", "backcountry": "yes", "caravans": "no", "drinking_water": "no", "internet_access": "no", "motor_vehicle": "no", "name": "Wasserwanderrastplatz \"An den Baumzwillingen\" Prenzlau", "openfire": "yes", "picnic_table": "yes", "tents": "yes", "toilets": "no", "tourism": "camp_site"}}, {"type": "node", "id": 7490497130, "lat": 53.6821573, "lon": 14.070131, "tags": {"addr:city": "Eggesin", "addr:housenumber": "1", "addr:postcode": "17367", "addr:street": "Pasewalker Stra\u00dfe", "caravans": "yes", "name": "Hafen Eggesin", "operator": "B\u00e4rbel Ertelt", "permanent_camping": "no", "phone": "+49 39779 60082", "tents": "yes", "tourism": "camp_site", "website": "https://randow-floss.de/"}}, {"type": "node", "id": 8324627408, "lat": 53.2914504, "lon": 13.871919}, {"type": "node", "id": 8324627414, "lat": 53.2914597, "lon": 13.8726478}, {"type": "node", "id": 8324627416, "lat": 53.2914328, "lon": 13.8724274}, {"type": "node", "id": 8324672217, "lat": 53.2914216, "lon": 13.8721939}, {"type": "node", "id": 8324672218, "lat": 53.2914283, "lon": 13.8720031}, {"type": "node", "id": 8324672219, "lat": 53.2914381, "lon": 13.8719385}, {"type": "node", "id": 8913114996, "lat": 53.5291794, "lon": 14.0948972, "tags": {"barrier": "gate"}}, {"type": "node", "id": 8913114998, "lat": 53.5293111, "lon": 14.0951049}, {"type": "node", "id": 8927224592, "lat": 53.5304921, "lon": 14.0929705}, {"type": "node", "id": 9607729860, "lat": 53.2952889, "lon": 13.8740484}, {"type": "node", "id": 9607729861, "lat": 53.2953156, "lon": 13.873964}, {"type": "node", "id": 10847121424, "lat": 53.2927795, "lon": 13.870946}, {"type": "node", "id": 10847121427, "lat": 53.2927099, "lon": 13.8710021}, {"type": "node", "id": 10847121441, "lat": 53.2932384, "lon": 13.8705975}, {"type": "node", "id": 10847121447, "lat": 53.2940635, "lon": 13.8698837}, {"type": "node", "id": 10847121634, "lat": 53.292249, "lon": 13.8732479}, {"type": "node", "id": 10847121797, "lat": 53.291429, "lon": 13.8723495, "tags": {"barrier": "gate", "bicycle": "permissive", "foot": "permissive", "horse": "private", "locked": "no", "motor_vehicle": "private", "opening_hours": "Mo-Su 8:00-20:00"}}, {"type": "node", "id": 10847121991, "lat": 53.2927048, "lon": 13.8710088}, {"type": "node", "id": 10847122019, "lat": 53.2917603, "lon": 13.8730148}, {"type": "node", "id": 10847122020, "lat": 53.2940587, "lon": 13.874168}, {"type": "node", "id": 10847122021, "lat": 53.2952949, "lon": 13.8740141}, {"type": "way", "id": 96701896, "nodes": [1119875180, 1119875223, 1119875192, 4320596263, 1119875217, 1119875227, 1119875195, 4320596257, 1119898074, 1119897982, 1119898183, 1119898094, 1119875184, 1119898210, 1119897847, 1119875203, 1119875176, 1119870863, 1119875198, 1119875180], "tags": {"addr:city": "Br\u00fcssow", "addr:housenumber": "8", "addr:postcode": "17326", "addr:street": "Prenzlauer Stra\u00dfe", "name": "Campingplatz Br\u00fcssow", "phone": "+49 39742 86041", "tents": "yes", "tourism": "camp_site", "website": "https://www.amt-bruessow.de/verzeichnis/mandat.php?mandat=49085&kategorie=351"}}, {"type": "way", "id": 169555884, "nodes": [1807224114, 2398336656, 2398336654, 1807224092, 2669364009, 2669364003, 1807224088, 1807224089, 1807224090, 1807224091, 1807224094, 1807224114], "tags": {"addr:city": "Mescherin", "addr:country": "DE", "addr:housenumber": "17", "addr:postcode": "16307", "addr:street": "Obere Dorfstra\u00dfe", "caravans": "yes", "email": "info@campingplatz-meschein.de", "fee": "yes", "name": "Campingplatz am Oderstrom", "operator": "Dorfverein am Oderstrom e.V.", "phone": "+49 33332 870044", "reservation": "recommended", "shower": "yes", "tents": "yes", "tourism": "camp_site", "website": "https://www.campingplatz-mescherin.de", "wikidata": "Q123420957"}}, {"type": "way", "id": 232717950, "nodes": [255251755, 8913114996, 2410475717, 8913114998, 2410475719, 2410475720, 2410475721, 2410475723, 5106697272, 2410475724, 2410475726, 5106697271, 2410475730, 2410475729, 5106697266, 1094691584, 5106697270, 255251753, 8927224592, 255251754, 5106697268, 5106697269, 5106697275, 2410475715, 5106697259, 255251755], "tags": {"addr:city": "Krugsdorf", "addr:housenumber": "4", "addr:postcode": "17309", "addr:street": "Seeweg", "fee": "yes", "name": "Zeltplatz Krugsdorf", "operator": "Erhard Rutz", "phone": "+49 175 4027812", "source": "http://www.krugsdorf-zeltplatz.de/", "tourism": "camp_site", "website": "http://www.krugsdorf-zeltplatz.de/"}}, {"type": "way", "id": 297719175, "nodes": [248927520, 4836183943, 4836183942, 2266464511, 2266464338, 2266464512, 248927520], "tags": {"addr:city": "Prenzlau", "addr:housenumber": "17", "addr:postcode": "17291", "addr:street": "Neust\u00e4dter Damm", "caravans": "yes", "email": "camp@solaris-prenzlau.de", "fee": "yes", "name": "Camp SOLARIS", "source": "survey", "tents": "yes", "tourism": "camp_site", "website": "https://www.solaris-prenzlau.de", "wikidata": "Q123435399"}}, {"type": "way", "id": 384655027, "nodes": [3802472759, 3879980146, 3879980147, 3879980148, 3879980149, 3879980150, 3802472757, 3802472759], "tags": {"addr:city": "L\u00f6cknitz", "addr:housenumber": "6a", "addr:postcode": "17321", "addr:street": "Friedrich-Engels-Stra\u00dfe", "email": "info@campingplatz-waldblick.de", "name": "Campingplatz \u201eWaldblick\u201c", "tourism": "camp_site", "website": "http://www.campingplatz-waldblick.de/"}}, {"type": "way", "id": 519336676, "nodes": [8324627408, 8324672219, 8324672218, 8324672217, 10847121797, 8324627416, 8324627414, 3014318777, 10847122019, 3014318782, 10847121634, 3014318789, 10847122020, 3014318792, 3014318793, 3014318794, 9607729860, 10847122021, 9607729861, 2267756906, 2267756923, 2267757111, 2267757045, 2267757044, 10847121447, 10847121441, 10847121424, 10847121427, 10847121991, 5064207168, 3014318776, 8324627408], "tags": {"addr:city": "Prenzlau", "addr:housenumber": "85", "addr:postcode": "17291", "addr:street": "Uckerpromenade", "cabins": "yes", "caravans": "yes", "construction": "camp_site", "contact:website": "https://www.sonnenkap-camping.de", "internet_access": "wlan", "name": "Sonnenkap", "opening_date": "2021-05-01", "operator": "CPG Campinplatzgesellschaft mbH", "phone": "+49 3984 8629180", "power_supply": "yes", "shower": "yes", "tents": "yes", "toilets": "yes", "tourism": "camp_site", "website": "https://www.sonnenkap-camping.de/", "wikidata": "Q123421886"}}]}